NOAA 18                 
1 28654U 05018A   24350.15790029  .00000450  00000+0  26262-3 0  9995
2 28654  98.8609  65.5125 0013248 269.6938  90.2716 14.13453151  8823
